MALLIGYONG-1            
1 58400U 23179A   24170.56334438  .00005937  00000+0  27008-3 0  9992
2 58400  97.4046  57.3903 0002582 141.5959 218.5461 15.21088606 31937
